[
  {
    "OBJECT_NAME": "GSAT0213 (GALILEO 17)",
    "OBJECT_ID": "2016-069C",
    "EPOCH": "2024-09-02T02:25:39.307296",
    "MEAN_MOTION": 1.70474575,
    "ECCENTRICITY": 0.0002576,
    "INCLINATION": 55.122,
    "RA_OF_ASC_NODE": 119.1865,
    "ARG_OF_PERICENTER": 290.4815,
    "MEAN_ANOMALY": 69.5881,
    "EPHEMERIS_TYPE": 0,
    "CLASSIFICATION_TYPE": "U",
    "NORAD_CAT_ID": 41861,
    "ELEMENT_SET_NO": 999,
    "REV_AT_EPOCH": 4838,
    "BSTAR": 0,
    "MEAN_MOTION_DOT": 1e-8,
    "MEAN_MOTION_DDOT": 0
  },
  {
    "OBJECT_NAME": "GSAT0214 (GALILEO 18)",
    "OBJECT_ID": "2016-069D",
    "EPOCH": "2024-09-02T05:54:51.775776",
    "MEAN_MOTION": 1.70474139,
    "ECCENTRICITY": 0.0001697,
    "INCLINATION": 55.1199,
    "RA_OF_ASC_NODE": 119.1759,
    "ARG_OF_PERICENTER": 302.091,
    "MEAN_ANOMALY": 57.9906,
    "EPHEMERIS_TYPE": 0,
    "CLASSIFICATION_TYPE": "U",
    "NORAD_CAT_ID": 41862,
    "ELEMENT_SET_NO": 999,
    "REV_AT_EPOCH": 4851,
    "BSTAR": 0,
    "MEAN_MOTION_DOT": 2e-8,
    "MEAN_MOTION_DDOT": 0
  },
  {
    "OBJECT_NAME": "GSAT0215 (GALILEO 19)",
    "OBJECT_ID": "2017-079A",
    "EPOCH": "2024-09-02T03:34:36.903936",
    "MEAN_MOTION": 1.70474175,
    "ECCENTRICITY": 0.0003513,
    "INCLINATION": 55.312,
    "RA_OF_ASC_NODE": 239.4779,
    "ARG_OF_PERICENTER": 265.7584,
    "MEAN_ANOMALY": 94.1922,
    "EPHEMERIS_TYPE": 0,
    "CLASSIFICATION_TYPE": "U",
    "NORAD_CAT_ID": 43055,
    "ELEMENT_SET_NO": 999,
    "REV_AT_EPOCH": 4185,
    "BSTAR": 0,
    "MEAN_MOTION_DOT": 2.5e-7,
    "MEAN_MOTION_DDOT": 0
  },
  {
    "OBJECT_NAME": "GSAT0216 (GALILEO 20)",
    "OBJECT_ID": "2017-079B",
    "EPOCH": "2024-09-01T20:29:54.230496",
    "MEAN_MOTION": 1.70474304,
    "ECCENTRICITY": 0.0004908,
    "INCLINATION": 55.3121,
    "RA_OF_ASC_NODE": 239.4858,
    "ARG_OF_PERICENTER": 274.1982,
    "MEAN_ANOMALY": 85.7381,
    "EPHEMERIS_TYPE": 0,
    "CLASSIFICATION_TYPE": "U",
    "NORAD_CAT_ID": 43056,
    "ELEMENT_SET_NO": 999,
    "REV_AT_EPOCH": 4186,
    "BSTAR": 0,
    "MEAN_MOTION_DOT": 2.6e-7,
    "MEAN_MOTION_DDOT": 0
  },
  {
    "OBJECT_NAME": "GSAT0217 (GALILEO 21)",
    "OBJECT_ID": "2017-079C",
    "EPOCH": "2024-08-31T07:33:24.139008",
    "MEAN_MOTION": 1.70474233,
    "ECCENTRICITY": 0.0004194,
    "INCLINATION": 55.3112,
    "RA_OF_ASC_NODE": 239.5268,
    "ARG_OF_PERICENTER": 286.3911,
    "MEAN_ANOMALY": 73.5644,
    "EPHEMERIS_TYPE": 0,
    "CLASSIFICATION_TYPE": "U",
    "NORAD_CAT_ID": 43057,
    "ELEMENT_SET_NO": 999,
    "REV_AT_EPOCH": 4182,
    "BSTAR": 0,
    "MEAN_MOTION_DOT": 3.2e-7,
    "MEAN_MOTION_DDOT": 0
  },
  {
    "OBJECT_NAME": "GSAT0218 (GALILEO 22)",
    "OBJECT_ID": "2017-079D",
    "EPOCH": "2024-09-01T16:59:37.705920",
    "MEAN_MOTION": 1.70474213,
    "ECCENTRICITY": 0.0005405,
    "INCLINATION": 55.3106,
    "RA_OF_ASC_NODE": 239.486,
    "ARG_OF_PERICENTER": 270.808,
    "MEAN_ANOMALY": 89.1233,
    "EPHEMERIS_TYPE": 0,
    "CLASSIFICATION_TYPE": "U",
    "NORAD_CAT_ID": 43058,
    "ELEMENT_SET_NO": 999,
    "REV_AT_EPOCH": 4187,
    "BSTAR": 0,
    "MEAN_MOTION_DOT": 2.6e-7,
    "MEAN_MOTION_DDOT": 0
  },
  {
    "OBJECT_NAME": "GSAT0221 (GALILEO 25)",
    "OBJECT_ID": "2018-060A",
    "EPOCH": "2024-09-02T04:41:58.786656",
    "MEAN_MOTION": 1.70476305,
    "ECCENTRICITY": 0.0003394,
    "INCLINATION": 57.3025,
    "RA_OF_ASC_NODE": 359.3973,
    "ARG_OF_PERICENTER": 259.0384,
    "MEAN_ANOMALY": 100.9282,
    "EPHEMERIS_TYPE": 0,
    "CLASSIFICATION_TYPE": "U",
    "NORAD_CAT_ID": 43564,
    "ELEMENT_SET_NO": 999,
    "REV_AT_EPOCH": 3803,
    "BSTAR": 0,
    "MEAN_MOTION_DOT": -0.0000011,
    "MEAN_MOTION_DDOT": 0
  },
  {
    "OBJECT_NAME": "GSAT0222 (GALILEO 26)",
    "OBJECT_ID": "2018-060B",
    "EPOCH": "2024-09-03T00:01:29.653824",
    "MEAN_MOTION": 1.70476143,
    "ECCENTRICITY": 0.0003866,
    "INCLINATION": 57.3057,
    "RA_OF_ASC_NODE": 359.3778,
    "ARG_OF_PERICENTER": 222.8707,
    "MEAN_ANOMALY": 137.1063,
    "EPHEMERIS_TYPE": 0,
    "CLASSIFICATION_TYPE": "U",
    "NORAD_CAT_ID": 43565,
    "ELEMENT_SET_NO": 999,
    "REV_AT_EPOCH": 3809,
    "BSTAR": 0,
    "MEAN_MOTION_DOT": -0.00000107,
    "MEAN_MOTION_DDOT": 0
  },
  {
    "OBJECT_NAME": "GSAT0219 (GALILEO 23)",
    "OBJECT_ID": "2018-060C",
    "EPOCH": "2024-09-02T01:11:27.767616",
    "MEAN_MOTION": 1.70476333,
    "ECCENTRICITY": 0.0002462,
    "INCLINATION": 57.306,
    "RA_OF_ASC_NODE": 359.4052,
    "ARG_OF_PERICENTER": 260.7947,
    "MEAN_ANOMALY": 99.1818,
    "EPHEMERIS_TYPE": 0,
    "CLASSIFICATION_TYPE": "U",
    "NORAD_CAT_ID": 43566,
    "ELEMENT_SET_NO": 999,
    "REV_AT_EPOCH": 3805,
    "BSTAR": 0,
    "MEAN_MOTION_DOT": -0.0000011,
    "MEAN_MOTION_DDOT": 0
  },
  {
    "OBJECT_NAME": "GSAT0220 (GALILEO 24)",
    "OBJECT_ID": "2018-060D",
    "EPOCH": "2024-09-01T16:24:33.451200",
    "MEAN_MOTION": 1.70476281,
    "ECCENTRICITY": 0.0002751,
    "INCLINATION": 57.3055,
    "RA_OF_ASC_NODE": 359.4149,
    "ARG_OF_PERICENTER": 257.4131,
    "MEAN_ANOMALY": 102.5596,
    "EPHEMERIS_TYPE": 0,
    "CLASSIFICATION_TYPE": "U",
    "NORAD_CAT_ID": 43567,
    "ELEMENT_SET_NO": 999,
    "REV_AT_EPOCH": 3803,
    "BSTAR": 0,
    "MEAN_MOTION_DOT": -0.00000111,
    "MEAN_MOTION_DDOT": 0
  },
  {
    "OBJECT_NAME": "GSAT0223 (GALILEO 27)",
    "OBJECT_ID": "2021-116A",
    "EPOCH": "2024-09-01T12:51:14.587200",
    "MEAN_MOTION": 1.70476478,
    "ECCENTRICITY": 0.0003342,
    "INCLINATION": 57.2957,
    "RA_OF_ASC_NODE": 359.3126,
    "ARG_OF_PERICENTER": 191.5596,
    "MEAN_ANOMALY": 167.9808,
    "EPHEMERIS_TYPE": 0,
    "CLASSIFICATION_TYPE": "U",
    "NORAD_CAT_ID": 49809,
    "ELEMENT_SET_NO": 999,
    "REV_AT_EPOCH": 1703,
    "BSTAR": 0,
    "MEAN_MOTION_DOT": -0.00000112,
    "MEAN_MOTION_DDOT": 0
  },
  {
    "OBJECT_NAME": "GSAT0224 (GALILEO 28)",
    "OBJECT_ID": "2021-116B",
    "EPOCH": "2024-09-01T22:27:39.912768",
    "MEAN_MOTION": 1.70476466,
    "ECCENTRICITY": 0.0002857,
    "INCLINATION": 57.2966,
    "RA_OF_ASC_NODE": 359.3004,
    "ARG_OF_PERICENTER": 190.4004,
    "MEAN_ANOMALY": 167.321,
    "EPHEMERIS_TYPE": 0,
    "CLASSIFICATION_TYPE": "U",
    "NORAD_CAT_ID": 49810,
    "ELEMENT_SET_NO": 999,
    "REV_AT_EPOCH": 1706,
    "BSTAR": 0,
    "MEAN_MOTION_DOT": -0.00000111,
    "MEAN_MOTION_DDOT": 0
  },
  {
    "OBJECT_NAME": "GSAT0225 (GALILEO 29)",
    "OBJECT_ID": "2024-079A",
    "EPOCH": "2024-09-01T15:47:16.177632",
    "MEAN_MOTION": 1.70474411,
    "ECCENTRICITY": 0.0001512,
    "INCLINATION": 54.7371,
    "RA_OF_ASC_NODE": 119.3688,
    "ARG_OF_PERICENTER": 166.4778,
    "MEAN_ANOMALY": 11.366,
    "EPHEMERIS_TYPE": 0,
    "CLASSIFICATION_TYPE": "U",
    "NORAD_CAT_ID": 59598,
    "ELEMENT_SET_NO": 999,
    "REV_AT_EPOCH": 217,
    "BSTAR": 0,
    "MEAN_MOTION_DOT": -2e-8,
    "MEAN_MOTION_DDOT": 0
  },
  {
    "OBJECT_NAME": "GSAT0227 (GALILEO 30)",
    "OBJECT_ID": "2024-079C",
    "EPOCH": "2024-08-30T04:55:24.243744",
    "MEAN_MOTION": 1.70474228,
    "ECCENTRICITY": 0.0002604,
    "INCLINATION": 54.7313,
    "RA_OF_ASC_NODE": 119.4386,
    "ARG_OF_PERICENTER": 101.6893,
    "MEAN_ANOMALY": 258.4184,
    "EPHEMERIS_TYPE": 0,
    "CLASSIFICATION_TYPE": "U",
    "NORAD_CAT_ID": 59600,
    "ELEMENT_SET_NO": 999,
    "REV_AT_EPOCH": 218,
    "BSTAR": 0,
    "MEAN_MOTION_DOT": -2e-7,
    "MEAN_MOTION_DDOT": 0
  }
]
