GSAT0213 (GALILEO 17)   
1 41861U 16069C   24246.10114939  .00000001  00000+0  00000+0 0  9997
2 41861  55.1220 119.1865 0002576 290.4815  69.5881  1.70474575 48387
GSAT0214 (GALILEO 18)   
1 41862U 16069D   24246.24643259  .00000002  00000+0  00000+0 0  9996
2 41862  55.1199 119.1759 0001697 302.0910  57.9906  1.70474139 48514
GSAT0215 (GALILEO 19)   
1 43055U 17079A   24246.14903824  .00000025  00000+0  00000+0 0  9995
2 43055  55.3120 239.4779 0003513 265.7584  94.1922  1.70474175 41856
GSAT0216 (GALILEO 20)   
1 43056U 17079B   24245.85409989  .00000026  00000+0  00000+0 0  9997
2 43056  55.3121 239.4858 0004908 274.1982  85.7381  1.70474304 41861
GSAT0217 (GALILEO 21)   
1 43057U 17079C   24244.31486272  .00000032  00000+0  00000+0 0  9995
2 43057  55.3112 239.5268 0004194 286.3911  73.5644  1.70474233 41826
GSAT0218 (GALILEO 22)   
1 43058U 17079D   24245.70807530  .00000026  00000+0  00000+0 0  9997
2 43058  55.3106 239.4860 0005405 270.8080  89.1233  1.70474213 41878
GSAT0221 (GALILEO 25)   
1 43564U 18060A   24246.19581929 -.00000110  00000+0  00000+0 0  9990
2 43564  57.3025 359.3973 0003394 259.0384 100.9282  1.70476305 38034
GSAT0222 (GALILEO 26)   
1 43565U 18060B   24247.00103766 -.00000107  00000+0  00000+0 0  9997
2 43565  57.3057 359.3778 0003866 222.8707 137.1063  1.70476143 38099
GSAT0219 (GALILEO 23)   
1 43566U 18060C   24246.04962694 -.00000110  00000+0  00000+0 0  9998
2 43566  57.3060 359.4052 0002462 260.7947  99.1818  1.70476333 38050
GSAT0220 (GALILEO 24)   
1 43567U 18060D   24245.68372050 -.00000111  00000+0  00000+0 0  9990
2 43567  57.3055 359.4149 0002751 257.4131 102.5596  1.70476281 38033
GSAT0223 (GALILEO 27)   
1 49809U 21116A   24245.53558550 -.00000112  00000+0  00000+0 0  9997
2 49809  57.2957 359.3126 0003342 191.5596 167.9808  1.70476478 17038
GSAT0224 (GALILEO 28)   
1 49810U 21116B   24245.93587862 -.00000111  00000+0  00000+0 0  9990
2 49810  57.2966 359.3004 0002857 190.4004 167.3210  1.70476466 17068
GSAT0225 (GALILEO 29)   
1 59598U 24079A   24245.65782613 -.00000002  00000+0  00000+0 0  9994
2 59598  54.7371 119.3688 0001512 166.4778  11.3660  1.70474411  2175
GSAT0227 (GALILEO 30)   
1 59600U 24079C   24243.20514171 -.00000020  00000+0  00000+0 0  9999
2 59600  54.7313 119.4386 0002604 101.6893 258.4184  1.70474228  2185
